QZS-1R                  
1 49336U 21096A   24193.75980590 -.00000291  00000+0  00000+0 0  9996
2 49336  35.9926  90.1561 0757542 271.9730 334.0583  1.00250760  9930
